INTELSAT 10 (IS-10)     
1 26766U 01019A   25283.99967795  .00000066  00000+0  00000+0 0  9999
2 26766   8.4761  61.7768 0005160 193.0345 173.5884  0.99074815 43115
INTELSAT 902 (IS-902)   
1 26900U 01039A   25281.76807552 -.00000279  00000+0  00000+0 0  9995
2 26900   5.4788  74.8408 0004201 119.7746  49.4647  1.00271851 88177
INTELSAT 904 (IS-904)   
1 27380U 02007A   25277.70507032 -.00000198  00000+0  00000+0 0  9993
2 27380   6.2753  72.2328 0001108 157.5250  10.1766  1.00265842 49208
DIRECTV 5 (TEMPO 1)     
1 27426U 02023A   25284.11095844 -.00000060  00000+0  00000+0 0  9996
2 27426   4.2375  78.4050 0003958 143.1232  88.2790  1.00271856 85624
INTELSAT 905 (IS-905)   
1 27438U 02027A   25283.03530535  .00000095  00000+0  00000+0 0  9991
2 27438   6.1208  72.7969 0002555 129.1870  52.4588  1.00273403 48855
GALAXY 3C (G-3C)        
1 27445U 02030A   25284.18531877 -.00000156  00000+0  00000+0 0  9999
2 27445   3.1009  81.1488 0001700  75.8228 194.9453  1.00270991 43996
INTELSAT 906 (IS-906)   
1 27513U 02041A   25284.00279797  .00000010  00000+0  00000+0 0  9996
2 27513   5.1659  75.9815 0003972 158.1421 210.8872  1.00272795 84535
GALAXY 13 (HORIZONS-1)  
1 27954U 03044A   25284.17439873  .00000128  00000+0  00000+0 0  9990
2 27954   0.7700  87.3282 0002104 110.5611  94.9292  1.00270394 44071
INTELSAT 10-02          
1 28358U 04022A   25284.20395220 -.00000016  00000+0  00000+0 0  9994
2 28358   0.0139 147.1540 0001205 104.3964 200.9356  1.00272350 78053
XM-3 (RHYTHM)           
1 28626U 05008A   25283.97298450 -.00000204  00000+0  00000+0 0  9996
2 28626   0.0018 332.0384 0000346 269.5420  42.1952  1.00271086 40124
DIRECTV 8               
1 28659U 05019A   25284.22197565 -.00000004  00000+0  00000+0 0  9996
2 28659   0.0394  83.2735 0003622 136.5185 121.1576  1.00271457 74571
GALAXY 28 (G-28)        
1 28702U 05022A   25283.54432920 -.00000192  00000+0  00000+0 0  9998
2 28702   2.6527  82.0271 0005587 160.8923 243.7708  1.00296132 49487
GALAXY 16 (G-16)        
1 29236U 06023A   25284.18453877 -.00000132  00000+0  00000+0 0  9992
2 29236   0.0184 176.1096 0002843  32.6333 138.7315  1.00271569 70471
DIRECTV 9S              
1 29494U 06043A   25284.19975306 -.00000118  00000+0  00000+0 0  9991
2 29494   1.7739  83.9178 0003169 123.2182 143.6355  1.00271393 48882
GALAXY 17 (G-17)        
1 31307U 07016B   25284.18731212 -.00000210  00000+0  00000+0 0  9996
2 31307   2.3376  83.0355 0006474 157.8195 121.6318  1.00270725 67300
DIRECTV 10              
1 31862U 07032A   25284.18375876 -.00000108  00000+0  00000+0 0  9996
2 31862   0.0350   7.1747 0000914 228.2486 107.9877  1.00271597 43099
INTELSAT 11 (IS-11)     
1 32253U 07044B   25284.23203234 -.00000287  00000+0  00000+0 0  9996
2 32253   2.9125  81.7082 0008762 134.3614  28.1962  0.99052391 65981
HORIZONS-2              
1 32388U 07063B   25284.18956546 -.00000258  00000+0  00000+0 0  9999
2 32388   1.9552  83.6831 0003369 151.3817 139.4406  1.00271259 65313
DIRECTV 11              
1 32729U 08013A   25283.97038449 -.00000130  00000+0  00000+0 0  9992
2 32729   0.0047 295.1357 0000223 216.2108 118.6339  1.00271203 43098
GALAXY 18 (G-18)        
1 32951U 08024A   25284.21086584  .00000020  00000+0  00000+0 0  9999
2 32951   0.0178 225.1596 0003136 335.7681 132.0421  1.00270938 43352
INTELSAT 25 (IS-25)     
1 33153U 08034A   25284.19955861 -.00000228  00000+0  00000+0 0  9996
2 33153   2.0618  83.3781 0004410 140.7943 196.2238  1.00270811 63191
GALAXY 19 (G-19)        
1 33376U 08045A   25284.18488544 -.00000144  00000+0  00000+0 0  9990
2 33376   0.0163 248.1734 0002935 316.3215 145.1110  1.00271502 62406
FM-5                    
1 35493U 09034A   25284.14350291 -.00000205  00000+0  00000+0 0  9992
2 35493   0.0243 259.8716 0000605 248.4528 197.1886  1.00270873 44148
INTELSAT 14 (IS-14)     
1 36097U 09064A   25284.19519882 -.00000278  00000+0  00000+0 0  9994
2 36097   0.0075 166.0939 0002591  36.6209 202.6144  1.00271364 58103
INTELSAT 15 (IS-15)     
1 36106U 09067A   25284.00695799 -.00000190  00000+0  00000+0 0  9993
2 36106   0.0133 169.9630 0002436  40.3879 257.1747  1.00271361 38730
DIRECTV 12              
1 36131U 09075A   25284.18375876 -.00000109  00000+0  00000+0 0  9990
2 36131   0.0342  30.6400 0000548 195.5545 117.2801  1.00270890 44059
INTELSAT 16 (IS-16)     
1 36397U 10006A   25284.15150216  .00000000  00000+0  00000+0 0  9995
2 36397   0.0100 221.0637 0002707   1.8897 135.3763  1.00269517 57158
XM-5                    
1 37185U 10053A   25283.96726448 -.00000027  00000+0  00000+0 0  9997
2 37185   0.0608 268.4321 0000331 223.0019 121.4190  1.00270856 54983
INTELSAT 17 (IS-17)     
1 37238U 10065B   25284.14588528 -.00000007  00000+0  00000+0 0  9993
2 37238   0.0179 213.1201 0002743   0.6007 284.8019  1.00271544 50754
INTELSAT 28 (IS-28)     
1 37392U 11016A   25284.19955861 -.00000229  00000+0  00000+0 0  9990
2 37392   1.1582  85.8072 0004300 124.7227 209.6750  1.00270913 50787
INTELSAT 18 (IS-18)     
1 37834U 11056A   25284.16850537  .00000048  00000+0  00000+0 0  9994
2 37834   0.0181 258.6672 0002017 307.3204  54.7212  1.00272784 51314
INTELSAT 22 (IS-22)     
1 38098U 12011A   25284.16697677 -.00000064  00000+0  00000+0 0  9992
2 38098   0.0197 134.4815 0001761  64.5090 313.2414  1.00271324  4699
INTELSAT 19 (IS-19)     
1 38356U 12030A   25284.16573203 -.00000061  00000+0  00000+0 0  9995
2 38356   0.0088 202.4659 0003241   7.7668  35.4678  1.00271573 47959
INTELSAT 20 (IS-20)     
1 38740U 12043A   25284.16711566 -.00000030  00000+0  00000+0 0  9998
2 38740   0.0133 202.5046 0002153 324.3091 341.8751  1.00271700 48259
INTELSAT 21 (IS-21)     
1 38749U 12045A   25284.17288406 -.00000290  00000+0  00000+0 0  9990
2 38749   0.0524  78.7961 0002402 139.5221 165.9578  1.00270958 48020
INTELSAT 23 (IS-23)     
1 38867U 12057A   25284.19363881 -.00000290  00000+0  00000+0 0  9997
2 38867   0.0163 239.0953 0001918  11.4727 146.2172  1.00270520 47456
FM-6                    
1 39360U 13058A   25284.22197565 -.00000022  00000+0  00000+0 0  9999
2 39360   0.0224 141.0431 0002479  28.5047 174.2941  1.00271606 43562
INTELSAT 30 (IS-30)     
1 40271U 14062A   25284.15633922 -.00000156  00000+0  00000+0 0  9990
2 40271   0.0033 221.0803 0001157 199.1134 281.0430  1.00270431  4280
DIRECTV 14              
1 40333U 14078B   25284.18445211 -.00000130  00000+0  00000+0 0  9993
2 40333   0.0171 230.8030 0000561 339.6829 136.7363  1.00269950 39544
DIRECTV 15              
1 40663U 15026A   25284.18375876 -.00000108  00000+0  00000+0 0  9997
2 40663   0.0447  80.0655 0000452  69.4205 193.8546  1.00276405 37963
SKY MEXICO-1            
1 40664U 15026B   25284.18852545 -.00000239  00000+0  00000+0 0  9996
2 40664   0.0123 173.1000 0002186  30.7519 165.3104  1.00270560 37957
INTELSAT 34 (IS-34)     
1 40874U 15039A   25283.97905119 -.00000290  00000+0  00000+0 0  9992
2 40874   0.0183 261.8308 0000281 100.1280 314.8218  1.00270587 37128
INTELSAT 31 (IS-31)     
1 41581U 16035A   25284.19419816 -.00000156  00000+0  00000+0 0  9995
2 41581   0.0173 236.9842 0001974 352.3498 125.5623  1.00271010 34183
INTELSAT 36 (IS-36)     
1 41747U 16053A   25283.93233764 -.00000028  00000+0  00000+0 0  9994
2 41747   0.0150 296.1140 0001814  48.3710  79.4332  1.00270230 33448
INTELSAT 32E (IS-32E)   
1 41945U 17007B   25283.98147787 -.00000273  00000+0  00000+0 0  9990
2 41945   0.0241 105.7301 0000376 213.4583  10.8019  1.00270490 31726
INTELSAT 35E (IS-35E)   
1 42818U 17041A   25284.19955861  .00000000  00000+0  00000+0 0  9999
2 42818   0.0158 209.7553 0002731  11.9091 195.7135  1.00269622 30310
INTELSAT 37E (IS-37E)   
1 42950U 17059A   25284.20057219 -.00000146  00000+0  00000+0 0  9999
2 42950   0.0146 164.0096 0002968  44.2966 225.9559  1.00271018 29564
AZERSPACE 2 (IS-38)     
1 43632U 18074A   25284.14172525  .00000132  00000+0  00000+0 0  9990
2 43632   0.0192 225.3935 0001507 339.0890 271.6519  1.00270599 25951
HORIZONS-3E             
1 43633U 18074B   25284.16625203  .00000000  00000+0  00000+0 0  9993
2 43633   0.0131 214.6710 0001690  73.5071 320.6656  1.00270627 25848
AT&T T-16               
1 44333U 19034A   25283.97012449 -.00000119  00000+0  00000+0 0  9990
2 44333   0.0338  89.9212 0000558  89.9278  88.3677  1.00270857 23133
INTELSAT 39 (IS-39)     
1 44476U 19049B   25284.14510527  .00000029  00000+0  00000+0 0  9993
2 44476   0.0176 231.4694 0000353  90.9296 171.7817  1.00270540 22630
GALAXY 30 (G-30)        
1 46114U 20056C   25284.21086584  .00000032  00000+0  00000+0 0  9997
2 46114   0.0190 231.7916 0002732 336.5032 122.6962  1.00272047 18799
GALAXY 33 (G-33)        
1 54026U 22128A   25284.18794809  .00000074  00000+0  00000+0 0  9998
2 54026   0.0157 128.5050 0001950  68.7816 117.4159  1.00270027 11249
GALAXY 34 (G-34)        
1 54027U 22128B   25283.98447596  .00000000  00000+0  00000+0 0  9993
2 54027   0.0174 218.0828 0002368   9.5342  17.6320  1.00276843 11410
GALAXY 31 (G-31)        
1 54243U 22153A   25284.21086584  .00000008  00000+0  00000+0 0  9992
2 54243   0.0149 151.8088 0001855  74.8247 108.3414  1.00270206  4638
GALAXY 32 (G-32)        
1 54244U 22153B   25284.15576633 -.00000179  00000+0  00000+0 0  9995
2 54244   0.0019 197.3696 0001088  81.4891  66.2297  1.00271333 10643
GALAXY 35 (G-35)        
1 54741U 22170A   25284.19419816 -.00000167  00000+0  00000+0 0  9996
2 54741   0.0100 187.4321 0002187  21.4532 147.9658  1.00271235 10399
GALAXY 36 (G-36)        
1 54742U 22170B   25284.15568955 -.00000190  00000+0  00000+0 0  9998
2 54742   0.0103 214.7799 0001378 309.2887 182.9947  1.00271149 10278
GALAXY 37 (G-37)        
1 57493U 23112A   25284.21642096  .00000043  00000+0  00000+0 0  9993
2 57493   0.0161 251.6267 0002274 322.9812 116.3785  1.00270934  8048
